{{Infobox Planet  
| name = 424 Gratia
| image = 
| caption = 
| discovery=yes | physical_characteristics = yes | bgcolour=#FFFFC0
| discovery_ref = 
| discoverer = [[奥古斯特·沙卢瓦|奥古斯特·沙卢瓦]]
| discovery_site = [[尼斯|尼斯]]
| discovered =  1896年12月31日
| mp_name = 424
| alt_names = 1896 DF
| named_after = 格拉忒亚
| mp_category=[[小行星带|主带小行星]]
| orbit_ref = <ref>[http://ssd.jpl.nasa.gov/sbdb.cgi?sstr=424 424 Gratia (1896 DF)]</ref>
| epoch = 2011年8月27日
| semimajor= 2.776008546151966AU
| perihelion=2.470784161694615AU
| aphelion=3.081232930609318[[天文单位|AU]]
| eccentricity =0.1099508086459048		
| period =1689.388856052346[[日|地球日]]<br>4.63[[年|地球年]] 
| inclination=8.205117271248113[[角度|°]]
| asc_node=99.29005347405189°	
| arg_peri=331.7215644451392°
| mean_anomaly=326.4362793864347°
| avg_speed=
 | dimensions=87.20千米
 | mass=
 | density=
 | surface_grav=
 | escape_velocity=
 | rotation=19.47小时
 | spectral_type=
 | magnitude=
 | abs_magnitude=9.80
 | albedo=0.0279	
 | single_temperature=
}}
'''小行星424'''（'''424 Gratia'''），是由[[法国|法国]][[天文学家|天文学家]][[奥古斯特·沙卢瓦|奥古斯特·沙卢瓦]]于1896年12月31日在法国[[尼斯|尼斯]]发现的[[小行星带|主带]][[小行星|小行星]]。

小行星424以[[罗马神话|罗马神话]]的优雅女神格拉忒亚命名。

== 参考资料 ==
{{Reflist}}

{{Minor Planet Number|(423)[[小行星423|小行星423]]|(425)[[小行星425|小行星425]]}}

[[Category:小行星带天体|Category:小行星带天体]]
[[Category:1896年发现的小行星|Category:1896年发现的小行星]]
[[Category:以希腊神话命名的小行星|Category:以希腊神话命名的小行星]]